OBJECT_NAME,OBJECT_ID,EPOCH,MEAN_MOTION,ECCENTRICITY,INCLINATION,RA_OF_ASC_NODE,ARG_OF_PERICENTER,MEAN_ANOMALY,EPHEMERIS_TYPE,CLASSIFICATION_TYPE,NORAD_CAT_ID,ELEMENT_SET_NO,REV_AT_EPOCH,BSTAR,MEAN_MOTION_DOT,MEAN_MOTION_DDOT
DEKART,2020-068H,2026-07-03T16:08:12.938208,15.37728372,.00079501,97.8738,195.1267,214.6138,145.4589,0,U,46493,999,31830,.43360352E-3,.16007E-3,0
NORBI,2020-068J,2026-07-03T15:10:23.627424,15.49162510,.00070774,97.8622,202.0538,180.5906,179.5337,0,U,46494,999,31875,.44905984E-3,.24399E-3,0
SALSAT,2020-068K,2026-07-02T06:06:00.402048,15.30013367,.0008038,97.8847,187.2381,243.7769,116.2645,0,U,46495,999,31766,.29987E-3,.8637E-4,0
ICEYE-X6,2020-068M,2026-07-03T14:50:12.947424,15.04610902,.00081654,98.0969,179.0761,44.5479,315.6401,0,U,46497,999,31570,.24811217E-3,.3419E-4,0
NETSAT-4,2020-068U,2026-07-02T14:42:43.053984,15.44380953,.00034472,97.8600,193.0981,250.0471,110.0405,0,U,46504,999,31815,.39116177E-3,.17984E-3,0
NETSAT-3,2020-068V,2026-07-02T18:15:23.558112,15.43224400,.00028922,97.8650,191.4550,277.6321,82.4597,0,U,46505,999,31808,.45630798E-3,.20196E-3,0
NETSAT-1,2020-068W,2026-07-02T06:15:52.813152,15.34987582,.0003139,97.8745,185.0671,337.8079,22.3027,0,U,46506,999,31761,.40391E-3,.13631E-3,0
NETSAT-2,2020-068X,2026-07-02T12:02:22.294752,15.46666067,.0001408,97.8610,192.9295,305.0329,55.0787,0,U,46507,999,31810,.48478E-3,.24138E-3,0
TIANQI-6,2020-076D,2026-07-02T18:29:32.251488,15.07289216,.00109149,35.0001,312.8195,305.2667,54.7021,0,U,46810,999,31093,.27807029E-3,.4262E-4,0
KSM1-C,2020-081B,2026-07-03T15:19:48.478656,15.27020010,.00029404,36.8967,317.3578,337.9088,22.1535,0,U,46906,999,31168,.35265631E-3,.9487E-4,0
KSM1-D,2020-081C,2026-07-03T15:53:57.954048,15.24963282,.00032975,36.8981,326.5397,13.9211,346.1629,0,U,46907,999,31161,.28448305E-3,.7167E-4,0
KSM1-A,2020-081H,2026-07-03T15:36:42.107904,15.26223521,.00019916,36.8979,319.8033,74.3304,285.7664,0,U,46912,999,31169,.30755627E-3,.806E-4,0
R2,2020-081J,2026-07-02T18:16:31.204992,15.25661378,.0007013,36.8974,325.3522,50.2753,309.8613,0,U,46913,999,31436,.35718726E-3,.9224E-4,0
KSM1-B,2020-081K,2026-07-03T16:02:16.036224,15.24749595,.00046783,36.9038,327.1501,45.6339,314.4792,0,U,46914,999,31470,.29262935E-3,.7328E-4,0
GONETS-M 20,2020-091A,2026-07-03T14:07:15.852288,12.42893825,.00218563,82.5061,292.2409,143.0220,217.2372,0,U,47227,999,25311,-.15443391E-3,-.11E-6,0
GONETS-M 21,2020-091B,2026-07-03T15:25:39.437184,12.42886875,.0015486,82.4985,290.9039,155.7031,204.4782,0,U,47228,999,25311,-.34469724E-3,-.38E-6,0
GONETS-M 22,2020-091C,2026-07-03T16:42:44.029152,12.42893184,.00227717,82.5043,291.7771,138.3369,221.9451,0,U,47229,999,25307,.31021569E-4,.14E-6,0
CUBEL,2021-006AM,2026-07-02T14:40:46.345728,15.41774759,.00079948,97.2317,234.0538,117.8456,242.3602,0,U,47448,999,30213,.50382609E-3,.21285E-3,0
ARKTIKA-M 1,2021-016A,2026-06-29T22:50:46.732128,2.00617895,.72928178,63.2520,55.7907,269.9910,14.5481,0,U,47719,999,3904,0,-.281E-5,0
STARLINK-2342,2021-021Z,2026-07-03T10:00:08.000064,15.87142524,.00049964,53.1525,66.3757,234.7271,261.8158,0,U,47883,999,605,.86098894E-3,.234621E-2,0
GRUS-1B,2021-022C,2026-07-03T16:00:44.439264,14.98750636,.00147363,97.5350,67.3186,263.0129,96.9419,0,U,47934,999,28836,.77660365E-4,.879E-5,0
UNISAT-7,2021-022P,2026-07-02T16:22:30.680256,15.40894084,.00096325,97.3876,88.7712,31.9943,328.1887,0,U,47945,999,29224,.38003278E-3,.15566E-3,0
GLOBAL-9,2021-023G,2026-07-02T10:18:01.086336,15.47147002,.0002858,44.9791,164.8208,57.3580,302.7586,0,U,47971,999,29730,.42813E-3,.21919E-3,0
AII-BRAVO,2021-034C,2026-07-02T20:39:17.913600,15.03593974,.00052429,97.5602,238.4158,194.3422,165.7656,0,U,48270,999,28197,.34704623E-3,.4685E-4,0
TYVAK-182A,2021-034D,2026-07-02T14:38:01.161888,15.06307945,.0004075,97.5712,242.2601,277.5430,82.5334,0,U,48271,999,28215,.36674778E-3,.533E-4,0
CSS (TIANHE),2021-035A,2026-07-03T05:28:28.025760,15.57904594,.00028803,41.4672,224.3616,262.1202,97.9309,0,U,48274,999,29621,.10677817E-3,.7882E-4,0
TYVAK-0130,2021-041BF,2026-07-02T17:55:05.952288,15.27794503,.00088732,52.9974,313.8162,214.1366,145.9062,0,U,48606,999,28276,.29927361E-3,.7896E-4,0
HAIYANG-2D,2021-043A,2026-07-03T15:08:49.436736,13.83372222,.00115549,65.9990,263.7608,267.0220,92.9526,0,U,48621,999,25882,.36203264E-4,-.41E-6,0
