DEKART                  
1 46493U 20068H   26184.67237197  .00016007  00000+0  43360-3 0  9997
2 46493  97.8738 195.1267 0007950 214.6138 145.4589 15.37728372318303
NORBI                   
1 46494U 20068J   26184.63221791  .00024399  00000+0  44906-3 0  9997
2 46494  97.8622 202.0538 0007077 180.5906 179.5337 15.49162510318756
SALSAT                  
1 46495U 20068K   26183.25417132  .00008637  00000+0  29987-3 0  9990
2 46495  97.8847 187.2381 0008038 243.7769 116.2645 15.30013367317667
ICEYE-X6                
1 46497U 20068M   26184.61820541  .00003419  00000+0  24811-3 0  9999
2 46497  98.0969 179.0761 0008165  44.5479 315.6401 15.04610902315701
NETSAT-4                
1 46504U 20068U   26183.61299831  .00017984  00000+0  39116-3 0  9995
2 46504  97.8600 193.0981 0003447 250.0471 110.0405 15.44380953318150
NETSAT-3                
1 46505U 20068V   26183.76068933  .00020196  00000+0  45631-3 0  9997
2 46505  97.8650 191.4550 0002892 277.6321  82.4597 15.43224400318081
NETSAT-1                
1 46506U 20068W   26183.26102793  .00013631  00000+0  40391-3 0  9990
2 46506  97.8745 185.0671 0003139 337.8079  22.3027 15.34987582317610
NETSAT-2                
1 46507U 20068X   26183.50164693  .00024138  00000+0  48478-3 0  9993
2 46507  97.8610 192.9295 0001408 305.0329  55.0787 15.46666067318109
TIANQI-6                
1 46810U 20076D   26183.77051217  .00004262  00000+0  27807-3 0  9994
2 46810  35.0001 312.8195 0010914 305.2667  54.7021 15.07289216310939
KSM1-C                  
1 46906U 20081B   26184.63875554  .00009487  00000+0  35266-3 0  9992
2 46906  36.8967 317.3578 0002940 337.9088  22.1535 15.27020010311688
KSM1-D                  
1 46907U 20081C   26184.66247632  .00007167  00000+0  28448-3 0  9993
2 46907  36.8981 326.5397 0003297  13.9211 346.1629 15.24963282311611
KSM1-A                  
1 46912U 20081H   26184.65048736  .00008060  00000+0  30756-3 0  9990
2 46912  36.8979 319.8033 0001991  74.3304 285.7664 15.26223521311691
R2                      
1 46913U 20081J   26183.76147228  .00009224  00000+0  35719-3 0  9995
2 46913  36.8974 325.3522 0007013  50.2753 309.8613 15.25661378314368
KSM1-B                  
1 46914U 20081K   26184.66824116  .00007328  00000+0  29263-3 0  9994
2 46914  36.9038 327.1501 0004678  45.6339 314.4792 15.24749595314705
GONETS-M 20             
1 47227U 20091A   26184.58837792 -.00000011  00000+0 -15443-3 0  9997
2 47227  82.5061 292.2409 0021856 143.0220 217.2372 12.42893825253118
GONETS-M 21             
1 47228U 20091B   26184.64281756 -.00000038  00000+0 -34470-3 0  9998
2 47228  82.4985 290.9039 0015486 155.7031 204.4782 12.42886875253119
GONETS-M 22             
1 47229U 20091C   26184.69634293  .00000014  00000+0  31022-4 0  9995
2 47229  82.5043 291.7771 0022771 138.3369 221.9451 12.42893184253077
CUBEL                   
1 47448U 21006AM  26183.61164752  .00021285  00000+0  50383-3 0  9997
2 47448  97.2317 234.0538 0007994 117.8456 242.3602 15.41774759302132
ARKTIKA-M 1             
1 47719U 21016A   26180.95192977 -.00000281  00000+0  00000+0 0  9994
2 47719  63.2520  55.7907 7292817 269.9910  14.5481  2.00617895 39040
STARLINK-2342           
1 47883U 21021Z   26184.41675926  .00234621  00000+0  86099-3 0  9999
2 47883  53.1525  66.3757 0004996 234.7271 261.8158 15.87142524  6052
GRUS-1B                 
1 47934U 21022C   26184.66718101  .00000879  00000+0  77660-4 0  9998
2 47934  97.5350  67.3186 0014736 263.0129  96.9419 14.98750636288367
UNISAT-7                
1 47945U 21022P   26183.68229954  .00015566  00000+0  38003-3 0  9990
2 47945  97.3876  88.7712 0009632  31.9943 328.1887 15.40894084292242
GLOBAL-9                
1 47971U 21023G   26183.42917924  .00021919  00000+0  42813-3 0  9996
2 47971  44.9791 164.8208 0002858  57.3580 302.7586 15.47147002297307
AII-BRAVO               
1 48270U 21034C   26183.86062400  .00004685  00000+0  34705-3 0  9991
2 48270  97.5602 238.4158 0005242 194.3422 165.7656 15.03593974281970
TYVAK-182A              
1 48271U 21034D   26183.60973567  .00005330  00000+0  36675-3 0  9995
2 48271  97.5712 242.2601 0004075 277.5430  82.5334 15.06307945282159
CSS (TIANHE)            
1 48274U 21035A   26184.22810215  .00007882  00000+0  10678-3 0  9997
2 48274  41.4672 224.3616 0002880 262.1202  97.9309 15.57904594296214
TYVAK-0130              
1 48606U 21041BF  26183.74659667  .00007896  00000+0  29927-3 0  9993
2 48606  52.9974 313.8162 0008873 214.1366 145.9062 15.27794503282760
HAIYANG-2D              
1 48621U 21043A   26184.63112774 -.00000041  00000+0  36203-4 0  9996
2 48621  65.9990 263.7608 0011554 267.0220  92.9526 13.83372222258829
